[
    {
        "Altitude(m)": 559659.1732273592,
        "Argument of Periapsis(deg)": 0.026491964442854003,
        "Eccentricity": 0.0,
        "Inclination(deg)": 53.0,
        "Latitude(deg)": 52.09653505248869,
        "Longitude(deg)": -133.910061286028,
        "Mean Anomaly(deg)": 80.36647147031036,
        "RAAN(deg)": 254.96057347411207,
        "Satellite Name": "Starlink Shell 1 1124",
        "Satellite Number": 1124,
        "Semi-Major Axis(m)": 6931778.249405717,
        "Time(s)": 760
    },
    {
        "Altitude(m)": 559689.2373639581,
        "Argument of Periapsis(deg)": 0.02684054292236524,
        "Eccentricity": 0.0,
        "Inclination(deg)": 53.0,
        "Latitude(deg)": 52.22806839390239,
        "Longitude(deg)": -132.9549430743951,
        "Mean Anomaly(deg)": 80.99330267386705,
        "RAAN(deg)": 254.96005470403458,
        "Satellite Name": "Starlink Shell 1 1124",
        "Satellite Number": 1124,
        "Semi-Major Axis(m)": 6931778.249405717,
        "Time(s)": 770
    },
    {
        "Altitude(m)": 559717.358731915,
        "Argument of Periapsis(deg)": 0.027189121401876473,
        "Eccentricity": 0.0,
        "Inclination(deg)": 53.0,
        "Latitude(deg)": 52.35114314375928,
        "Longitude(deg)": -131.99411375482237,
        "Mean Anomaly(deg)": 81.6201338774238,
        "RAAN(deg)": 254.95953593395717,
        "Satellite Name": "Starlink Shell 1 1124",
        "Satellite Number": 1124,
        "Semi-Major Axis(m)": 6931778.249405717,
        "Time(s)": 780
    },
    {
        "Altitude(m)": 559743.5204407868,
        "Argument of Periapsis(deg)": 0.02753769988138771,
        "Eccentricity": 0.0,
        "Inclination(deg)": 53.0,
        "Latitude(deg)": 52.465675194447506,
        "Longitude(deg)": -131.02790083701362,
        "Mean Anomaly(deg)": 82.24696508098049,
        "RAAN(deg)": 254.95901716387965,
        "Satellite Name": "Starlink Shell 1 1124",
        "Satellite Number": 1124,
        "Semi-Major Axis(m)": 6931778.249405717,
        "Time(s)": 790
    },
    {
        "Altitude(m)": 559767.706787726,
        "Argument of Periapsis(deg)": 0.02788627836089895,
        "Eccentricity": 0.0,
        "Inclination(deg)": 53.0,
        "Latitude(deg)": 52.57158529043286,
        "Longitude(deg)": -130.05664659703703,
        "Mean Anomaly(deg)": 82.87379628453719,
        "RAAN(deg)": 254.95849839380216,
        "Satellite Name": "Starlink Shell 1 1124",
        "Satellite Number": 1124,
        "Semi-Major Axis(m)": 6931778.249405717,
        "Time(s)": 800
    },
    {
        "Altitude(m)": 559789.9032651737,
        "Argument of Periapsis(deg)": 0.02823485684041019,
        "Eccentricity": 0.0,
        "Inclination(deg)": 53.0,
        "Latitude(deg)": 52.668799283762446,
        "Longitude(deg)": -129.08070691680715,
        "Mean Anomaly(deg)": 83.50062748809394,
        "RAAN(deg)": 254.95797962372473,
        "Satellite Name": "Starlink Shell 1 1124",
        "Satellite Number": 1124,
        "Semi-Major Axis(m)": 6931778.249405717,
        "Time(s)": 810
    },
    {
        "Altitude(m)": 559810.0965679054,
        "Argument of Periapsis(deg)": 0.028583435319921423,
        "Eccentricity": 0.0,
        "Inclination(deg)": 53.0,
        "Latitude(deg)": 52.75724837797167,
        "Longitude(deg)": -128.10045003877704,
        "Mean Anomaly(deg)": 84.12745869165063,
        "RAAN(deg)": 254.95746085364726,
        "Satellite Name": "Starlink Shell 1 1124",
        "Satellite Number": 1124,
        "Semi-Major Axis(m)": 6931778.249405717,
        "Time(s)": 820
    },
    {
        "Altitude(m)": 559828.2745995348,
        "Argument of Periapsis(deg)": 0.028932013799432665,
        "Eccentricity": 0.0,
        "Inclination(deg)": 53.0,
        "Latitude(deg)": 52.83686935868827,
        "Longitude(deg)": -127.11625675053604,
        "Mean Anomaly(deg)": 84.75428989520732,
        "RAAN(deg)": 254.95694208356977,
        "Satellite Name": "Starlink Shell 1 1124",
        "Satellite Number": 1124,
        "Semi-Major Axis(m)": 6931778.249405717,
        "Time(s)": 830
    },
    {
        "Altitude(m)": 559844.4264784005,
        "Argument of Periapsis(deg)": 0.029280592278943897,
        "Eccentricity": 0.0,
        "Inclination(deg)": 53.0,
        "Latitude(deg)": 52.90760480917752,
        "Longitude(deg)": -126.12851897708205,
        "Mean Anomaly(deg)": 85.38112109876407,
        "RAAN(deg)": 254.9564233134923,
        "Satellite Name": "Starlink Shell 1 1124",
        "Satellite Number": 1124,
        "Semi-Major Axis(m)": 6931778.249405717,
        "Time(s)": 840
    },
    {
        "Altitude(m)": 559858.5425428483,
        "Argument of Periapsis(deg)": 0.029629170758455132,
        "Eccentricity": 0.0,
        "Inclination(deg)": 53.0,
        "Latitude(deg)": 52.96940330916541,
        "Longitude(deg)": -125.13763829797797,
        "Mean Anomaly(deg)": 86.00795230232077,
        "RAAN(deg)": 254.95590454341482,
        "Satellite Name": "Starlink Shell 1 1124",
        "Satellite Number": 1124,
        "Semi-Major Axis(m)": 6931778.249405717,
        "Time(s)": 850
    },
    {
        "Altitude(m)": 559870.6143559738,
        "Argument of Periapsis(deg)": 0.02997774923796637,
        "Eccentricity": 0.0,
        "Inclination(deg)": 53.0,
        "Latitude(deg)": 53.022219615370645,
        "Longitude(deg)": -124.14402607560979,
        "Mean Anomaly(deg)": 86.63478350587752,
        "RAAN(deg)": 254.95538577333733,
        "Satellite Name": "Starlink Shell 1 1124",
        "Satellite Number": 1124,
        "Semi-Major Axis(m)": 6931778.249405717,
        "Time(s)": 860
    },
    {
        "Altitude(m)": 559880.6347096866,
        "Argument of Periapsis(deg)": 0.030326327717477602,
        "Eccentricity": 0.0,
        "Inclination(deg)": 53.0,
        "Latitude(deg)": 53.06601482228445,
        "Longitude(deg)": -123.14810099825695,
        "Mean Anomaly(deg)": 87.26161470943421,
        "RAAN(deg)": 254.9548670032599,
        "Satellite Name": "Starlink Shell 1 1124",
        "Satellite Number": 1124,
        "Semi-Major Axis(m)": 6931778.249405717,
        "Time(s)": 870
    },
    {
        "Altitude(m)": 559888.597628249,
        "Argument of Periapsis(deg)": 0.030674906196988847,
        "Eccentricity": 0.0,
        "Inclination(deg)": 53.0,
        "Latitude(deg)": 53.10075650188641,
        "Longitude(deg)": -122.15028908781946,
        "Mean Anomaly(deg)": 87.8884459129909,
        "RAAN(deg)": 254.9543482331824,
        "Satellite Name": "Starlink Shell 1 1124",
        "Satellite Number": 1124,
        "Semi-Major Axis(m)": 6931778.249405717,
        "Time(s)": 880
    },
    {
        "Altitude(m)": 559894.4983711649,
        "Argument of Periapsis(deg)": 0.031023484676500086,
        "Eccentricity": 0.0,
        "Inclination(deg)": 53.0,
        "Latitude(deg)": 53.12641882112767,
        "Longitude(deg)": -121.15102197746467,
        "Mean Anomaly(deg)": 88.51527711654765,
        "RAAN(deg)": 254.9538294631049,
        "Satellite Name": "Starlink Shell 1 1124",
        "Satellite Number": 1124,
        "Semi-Major Axis(m)": 6931778.249405717,
        "Time(s)": 890
    },
    {
        "Altitude(m)": 559898.3334354965,
        "Argument of Periapsis(deg)": 0.03137206315601132,
        "Eccentricity": 0.0,
        "Inclination(deg)": 53.0,
        "Latitude(deg)": 53.14298263619328,
        "Longitude(deg)": -120.15073514850293,
        "Mean Anomaly(deg)": 89.14210832010436,
        "RAAN(deg)": 254.9533106930275,
        "Satellite Name": "Starlink Shell 1 1124",
        "Satellite Number": 1124,
        "Semi-Major Axis(m)": 6931778.249405717,
        "Time(s)": 900
    },
    {
        "Altitude(m)": 559900.1005575542,
        "Argument of Periapsis(deg)": 0.03172064163552255,
        "Eccentricity": 0.0,
        "Inclination(deg)": 53.0,
        "Latitude(deg)": 53.15043556274342,
        "Longitude(deg)": -119.1498676482443,
        "Mean Anomaly(deg)": 89.7689395236611,
        "RAAN(deg)": 254.95279192294998,
        "Satellite Name": "Starlink Shell 1 1124",
        "Satellite Number": 1124,
        "Semi-Major Axis(m)": 6931778.249405717,
        "Time(s)": 910
    },
    {
        "Altitude(m)": 559899.7987140084,
        "Argument of Periapsis(deg)": 0.0320692201150338,
        "Eccentricity": 0.0,
        "Inclination(deg)": 53.0,
        "Latitude(deg)": 53.14877202152669,
        "Longitude(deg)": -118.14886027241648,
        "Mean Anomaly(deg)": 90.39577072721774,
        "RAAN(deg)": 254.9522731528725,
        "Satellite Name": "Starlink Shell 1 1124",
        "Satellite Number": 1124,
        "Semi-Major Axis(m)": 6931778.249405717,
        "Time(s)": 920
    },
    {
        "Altitude(m)": 559897.4281223662,
        "Argument of Periapsis(deg)": 0.032417798594545036,
        "Eccentricity": 0.0,
        "Inclination(deg)": 53.0,
        "Latitude(deg)": 53.13799325897442,
        "Longitude(deg)": -117.14815373464612,
        "Mean Anomaly(deg)": 91.02260193077448,
        "RAAN(deg)": 254.95175438279503,
        "Satellite Name": "Starlink Shell 1 1124",
        "Satellite Number": 1124,
        "Semi-Major Axis(m)": 6931778.249405717,
        "Time(s)": 930
    },
    {
        "Altitude(m)": 559892.9902408854,
        "Argument of Periapsis(deg)": 0.03276637707405627,
        "Eccentricity": 0.0,
        "Inclination(deg)": 53.0,
        "Latitude(deg)": 53.11810734259905,
        "Longitude(deg)": -116.14818834568054,
        "Mean Anomaly(deg)": 91.64943313433123,
        "RAAN(deg)": 254.95123561271754,
        "Satellite Name": "Starlink Shell 1 1124",
        "Satellite Number": 1124,
        "Semi-Major Axis(m)": 6931778.249405717,
        "Time(s)": 940
    }
]